IRIDIUM 64 [+]          
1 25287U 98021C   16272.59442980  .00000208  00000-0  67334-4 0  9990
2 25287  86.3983 333.3219 0002253  90.8133 269.3321 14.34226206967506
IRIDIUM 65 [+]          
1 25288U 98021D   16272.60077454  .00000201  00000-0  64649-4 0  9992
2 25288  86.3981 333.2275 0002415  96.3806 263.7665 14.34226014967522
IRIDIUM 66 [+]          
1 25289U 98021E   16272.62906596  .00000025  00000-0  18163-5 0  9998
2 25289  86.3979 333.1212 0002277  97.4403  15.9127 14.34225470967526
IRIDIUM 67 [+]          
1 25290U 98021F   16272.61345873  .00000025  00000-0  17938-5 0  9993
2 25290  86.3981 333.2601 0002298  96.7335 263.4122 14.34225567967536
IRIDIUM 68 [+]          
1 25291U 98021G   16272.61978255  .00000203  00000-0  65520-4 0  9997
2 25291  86.3984 333.3713 0002319  94.5006 265.6454 14.34225143967509
IRIDIUM 69 [-]          
1 25319U 98026A   16272.31099455  .00000140  00000-0  39231-4 0  9996
2 25319  86.4038 355.8990 0003931  76.3448 283.8188 14.38616023965381
IRIDIUM 71 [-]          
1 25320U 98026B   16272.58502445  .00000168  00000-0  48096-4 0  9994
2 25320  86.4019 351.8011 0004123 108.6033 251.5613 14.39031351965847
IRIDIUM 70 [+]          
1 25342U 98032A   16272.59703414  .00000025  00000-0  16877-5 0  9990
2 25342  86.3988 333.6103 0002320  98.4433  13.0904 14.34225377961604
IRIDIUM 72 [+]          
1 25343U 98032B   16272.56271784  .00000199  00000-0  64133-4 0  9997
2 25343  86.3981 333.2534 0002312  95.8752 264.2708 14.34226053961602
IRIDIUM 73 [-]          
1 25344U 98032C   16272.48611139  .00000192  00000-0  45228-4 0  9998
2 25344  86.4417 313.5431 0001929 108.6684 251.4729 14.48971340969650
IRIDIUM 74 [S]          
1 25345U 98032D   16272.58301203  .00000212  00000-0  57535-4 0  9995
2 25345  86.4493 333.5885 0002357  89.9517  23.7586 14.42958811965022
IRIDIUM 75 [+]          
1 25346U 98032E   16272.29839241  .00000021  00000-0  26431-6 0  9993
2 25346  86.3986 333.6070 0002276  95.5747 307.9176 14.34224215962130
IRIDIUM 3 [+]           
1 25431U 98048A   16272.35684796  .00000223  00000-0  72712-4 0  9990
2 25431  86.4011   5.1713 0002328  98.7572 327.0494 14.34226700948084
IRIDIUM 76 [+]          
1 25432U 98048B   16272.37649477  .00000222  00000-0  72154-4 0  9999
2 25432  86.4016   4.9272 0002420 102.5183 326.4655 14.34218751948070
IRIDIUM 82 [+]          
1 25467U 98051A   16272.61145665  .00000139  00000-0  42600-4 0  9998
2 25467  86.3932 131.5522 0002334  78.8916 281.2542 14.34222329949128
IRIDIUM 81 [+]          
1 25468U 98051B   16272.60513035  .00000145  00000-0  44592-4 0  9997
2 25468  86.3956 131.1585 0002011  84.6804 275.4621 14.34222494945349
IRIDIUM 80 [+]          
1 25469U 98051C   16272.59641668  .00000136  00000-0  41446-4 0  9995
2 25469  86.3962 131.4365 0001953  81.6602 331.7131 14.34221779945340
IRIDIUM 77 [+]          
1 25471U 98051E   16272.60327984  .00000124  00000-0  37169-4 0  9996
2 25471  86.3951 131.0277 0002054  86.8551 329.1392 14.34221493950543
IRIDIUM 2 [-]           
1 25527U 98066A   16272.56073505  .00002892  00000-0  15001-3 0  9990
2 25527  85.5353 186.5693 0008731 348.0164  12.0867 15.15688826978238
IRIDIUM 86 [+]          
1 25528U 98066B   16271.92310422  .00000014  00000-0 -22325-5 0  9996
2 25528  86.3904  99.4756 0002331  84.5309 275.6149 14.34215650941775
IRIDIUM 84 [+]          
1 25530U 98066D   16271.67579857 -.00000312  00000-0 -11859-3 0  9990
2 25530  86.3897  99.7379 0002156  79.8361 280.3070 14.34217815939377
IRIDIUM 83 [+]          
1 25531U 98066E   16272.19583177 -.00000022  00000-0 -14873-4 0  9997
2 25531  86.3919  99.6356 0001942  82.8316 277.3101 14.34216082936804
IRIDIUM 20 [+]          
1 25577U 98074A   16272.60417205  .00000211  00000-0  68160-4 0  9996
2 25577  86.4008   4.7559 0002268  98.3950 261.7503 14.34218326930949
IRIDIUM 11 [+]          
1 25578U 98074B   16272.64055234  .00000011  00000-0 -32662-5 0  9999
2 25578  86.4007   4.9447 0002312  95.8141  26.5452 14.34226106939912
IRIDIUM 14 [+]          
1 25777U 99032A   16272.61672919  .00000198  00000-0  63537-4 0  9996
2 25777  86.3983 333.3082 0002403  97.9629  49.8604 14.34228236917182
IRIDIUM 21 [+]          
1 25778U 99032B   16272.55637486  .00000188  00000-0  59984-4 0  9990
2 25778  86.3982 333.3557 0002145  95.3148 264.8292 14.34226008910618
IRIDIUM 91 [+]          
1 27372U 02005A   16272.46872606  .00000006  00000-0 -48634-5 0  9992
2 27372  86.3998  37.2207 0002160  91.0639 337.2206 14.34214163774116
IRIDIUM 90 [S]          
1 27373U 02005B   16271.92210021  .00000093  00000-0  21736-4 0  9998
2 27373  86.4402  99.7245 0002206  88.8145 271.3304 14.42955644773537
IRIDIUM 94 [+]          
1 27374U 02005C   16272.36980499  .00000236  00000-0  77054-4 0  9994
2 27374  86.4008   5.1812 0002213 119.1344 308.0407 14.34217631778421
IRIDIUM 95 [+]          
1 27375U 02005D   16272.42378450  .00000163  00000-0  51217-4 0  9992
2 27375  86.3996  37.0214 0002092  98.0047 262.1386 14.34216845773390
IRIDIUM 96 [+]          
1 27376U 02005E   16272.47157387  .00000086  00000-0  23675-4 0  9993
2 27376  86.3964  68.5351 0000720  93.7944 266.3334 14.34214532778600
IRIDIUM 97 [+]          
1 27450U 02031A   16272.50973705  .00000071  00000-0  18300-4 0  9992
2 27450  86.3934  68.2906 0002107  86.6875 273.4561 14.34216978752720
IRIDIUM 98 [+]          
1 27451U 02031B   16272.57786388  .00000146  00000-0  45095-4 0  9993
2 27451  86.3953 131.6106 0002053  81.5878 334.1736 14.34221704753808
